NORAD_CAT_ID,OBJECT_NAME,OBJECT_TYPE,EPOCH,MEAN_MOTION,ECCENTRICITY,INCLINATION,RA_OF_ASC_NODE,ARG_OF_PERICENTER,MEAN_ANOMALY,BSTAR,MEAN_MOTION_DOT,MEAN_MOTION_DDOT,TLE_LINE0,TLE_LINE1,TLE_LINE2,SEMIMAJOR_AXIS,PERIOD,APOGEE,PERIGEE,DECAYED
53781.0,STARLINK-4462,PAYLOAD,2024-05-19 20:22:40,15.08829307,0.0001132,53.2179,351.7701,78.9777,281.1343,-0.00026033,-4.427e-05,0.0,0 STARLINK-4462,1 53781U 22111J   24140.84907675 -.00004427  00000-0 -26033-3 0  9994,2 53781  53.2179 351.7701 0001132  78.9777 281.1343 15.08829307 93422,6917.913,95.438,540.561,538.995,0.0
53781.0,STARLINK-4462,PAYLOAD,2024-05-19 23:33:26,15.08832221,0.000114,53.2184,351.1746,80.495,279.6171,-0.00014446,-2.586e-05,0.0,0 STARLINK-4462,1 53781U 22111J   24140.98155682 -.00002586  00000-0 -14446-3 0  9991,2 53781  53.2184 351.1746 0001140  80.4950 279.6171 15.08832221 94253,6917.904,95.438,540.558,538.981,0.0
53781.0,STARLINK-4462,PAYLOAD,2024-05-20 20:13:27,15.08848171,0.0001211,53.2184,347.31,70.6329,289.4794,0.00088552,0.00013836,0.0,0 STARLINK-4462,1 53781U 22111J   24141.84267966  .00013836  00000-0  88552-3 0  9993,2 53781  53.2184 347.3100 0001211  70.6329 289.4794 15.08848171 93579,6917.855,95.437,540.558,538.883,0.0
53781.0,STARLINK-4462,PAYLOAD,2024-05-20 23:24:13,15.08856767,0.0001209,53.2184,346.7139,74.8869,285.2257,0.0011027,0.00017313,0.0,0 STARLINK-4462,1 53781U 22111J   24141.97515789  .00017313  00000-0  11027-2 0  9992,2 53781  53.2184 346.7139 0001209  74.8869 285.2257 15.08856767 94407,6917.829,95.436,540.531,538.858,0.0
53781.0,STARLINK-4462,PAYLOAD,2024-05-21 20:04:14,15.08847723,0.0001277,53.217,342.8418,106.5104,253.6029,0.0002818,4.201e-05,0.0,0 STARLINK-4462,1 53781U 22111J   24142.83627631  .00004201  00000-0  28180-3 0  9999,2 53781  53.2170 342.8418 0001277 106.5104 253.6029 15.08847723 93721,6917.857,95.437,540.605,538.838,0.0
53781.0,STARLINK-4462,PAYLOAD,2024-05-22 19:55:01,15.08836095,0.0001086,53.2176,338.3838,91.2811,268.8305,6.8007e-05,7.95e-06,0.0,0 STARLINK-4462,1 53781U 22111J   24143.82988138  .00000795  00000-0  68007-4 0  9998,2 53781  53.2176 338.3838 0001086  91.2811 268.8305 15.08836095 93877,6917.892,95.438,540.509,539.006,0.0
53781.0,STARLINK-4462,PAYLOAD,2024-05-23 11:48:53,15.08831747,0.0001155,53.2173,335.4105,124.3158,235.7943,-1.3633e-05,-5.05e-06,0.0,0 STARLINK-4462,1 53781U 22111J   24144.49228456 -.00000505  00000-0 -13633-4 0  9998,2 53781  53.2173 335.4105 0001155 124.3158 235.7943 15.08831747 94789,6917.906,95.438,540.57,538.972,0.0
53781.0,STARLINK-4462,PAYLOAD,2024-05-23 19:45:48,15.08840013,0.0001067,53.2177,333.929,96.9694,263.142,3.6934e-05,3e-06,0.0,0 STARLINK-4462,1 53781U 22111J   24144.82348154  .00000300  00000-0  36934-4 0  9993,2 53781  53.2177 333.9290 0001067  96.9694 263.1420 15.08840013 94839,6917.88,95.438,540.483,539.007,0.0
53781.0,STARLINK-4462,PAYLOAD,2024-05-24 11:39:40,15.08832031,0.0001135,53.2176,330.955,111.1995,248.9119,0.00046527,7.123e-05,0.0,0 STARLINK-4462,1 53781U 22111J   24145.48588601  .00007123  00000-0  46527-3 0  9997,2 53781  53.2176 330.9550 0001135 111.1995 248.9119 15.08832031 94123,6917.905,95.438,540.555,538.985,0.0
53781.0,STARLINK-4462,PAYLOAD,2024-05-24 21:11:57,15.08888412,6.73e-05,53.2166,329.1704,127.5154,232.5899,0.00095814,0.00015014,0.0,0 STARLINK-4462,1 53781U 22111J   24145.88330129  .00015014  00000-0  95814-3 0  9992,2 53781  53.2166 329.1704 0000673 127.5154 232.5899 15.08888412 94181,6917.732,95.434,540.063,539.132,0.0
53781.0,STARLINK-4462,PAYLOAD,2024-05-24 22:47:21,15.08860329,8.98e-05,53.2166,328.874,111.4186,248.6902,0.00039248,5.967e-05,0.0,0 STARLINK-4462,1 53781U 22111J   24145.94955240  .00005967  00000-0  39248-3 0  9991,2 53781  53.2166 328.8740 0000898 111.4186 248.6902 15.08860329 94194,6917.818,95.436,540.304,539.062,0.0
53781.0,STARLINK-4462,PAYLOAD,2024-05-25 11:30:27,15.08836316,0.0001025,53.2159,326.4936,93.3097,266.8013,-2.7534e-05,-7.26e-06,0.0,0 STARLINK-4462,1 53781U 22111J   24146.47948312 -.00000726  00000-0 -27534-4 0  9998,2 53781  53.2159 326.4936 0001025  93.3097 266.8013 15.08836316 94272,6917.892,95.438,540.466,539.048,0.0
53781.0,STARLINK-4462,PAYLOAD,2024-05-26 11:21:14,15.08833882,7.57e-05,53.2161,322.0345,70.7815,289.3259,5.7364e-05,6.25e-06,0.0,0 STARLINK-4462,1 53781U 22111J   24147.47308958  .00000625  00000-0  57364-4 0  9995,2 53781  53.2161 322.0345 0000757  70.7815 289.3259 15.08833882 95233,6917.899,95.438,540.288,539.24,0.0
53781.0,STARLINK-4462,PAYLOAD,2024-05-26 19:18:10,15.08842494,9.29e-05,53.217,320.5482,66.7213,293.3877,0.00033426,5.036e-05,0.0,0 STARLINK-4462,1 53781U 22111J   24147.80428939  .00005036  00000-0  33426-3 0  9997,2 53781  53.2170 320.5482 0000929  66.7213 293.3877 15.08842494 94471,6917.873,95.437,540.38,539.095,0.0
53781.0,STARLINK-4462,PAYLOAD,2024-05-27 04:50:28,15.08863049,4.73e-05,53.2158,318.7648,18.0541,342.0468,0.00081971,0.0001279,0.0,0 STARLINK-4462,1 53781U 22111J   24148.20172243  .00012790  00000-0  81971-3 0  9999,2 53781  53.2158 318.7648 0000473  18.0541 342.0468 15.08863049 94532,6917.81,95.436,540.002,539.348,0.0
53781.0,STARLINK-4462,PAYLOAD,2024-05-27 11:12:01,15.08847227,0.0001072,53.2174,317.5758,65.1869,294.9234,0.00043785,6.689e-05,0.0,0 STARLINK-4462,1 53781U 22111J   24148.46668969  .00006689  00000-0  43785-3 0  9993,2 53781  53.2174 317.5758 0001072  65.1869 294.9234 15.08847227 94571,6917.858,95.437,540.465,538.982,0.0
53781.0,STARLINK-4462,PAYLOAD,2024-05-27 17:33:34,15.08852793,0.0001309,53.2175,316.3863,54.4805,305.6309,0.00045156,6.908e-05,0.0,0 STARLINK-4462,1 53781U 22111J   24148.73164794  .00006908  00000-0  45156-3 0  9998,2 53781  53.2175 316.3863 0001309  54.4805 305.6309 15.08852793 95422,6917.841,95.437,540.612,538.801,0.0
53781.0,STARLINK-4462,PAYLOAD,2024-05-28 17:24:21,15.08848299,0.0001049,53.2171,311.9272,63.8653,296.2447,0.00014866,2.079e-05,0.0,0 STARLINK-4462,1 53781U 22111J   24149.72524323  .00002079  00000-0  14866-3 0  9995,2 53781  53.2171 311.9272 0001049  63.8653 296.2447 15.08848299 94769,6917.855,95.437,540.446,538.994,0.0
53781.0,STARLINK-4462,PAYLOAD,2024-05-29 14:04:22,15.08840239,9.44e-05,53.2173,308.0618,84.1086,276.0014,5.9082e-05,6.53e-06,0.0,0 STARLINK-4462,1 53781U 22111J   24150.58636665  .00000653  00000-0  59082-4 0  9990,2 53781  53.2173 308.0618 0000944  84.1086 276.0014 15.08840239 95708,6917.88,95.438,540.398,539.092,0.0
53781.0,STARLINK-4462,PAYLOAD,2024-05-29 20:25:54,15.08844972,9.56e-05,53.2172,306.8708,87.4273,272.6829,0.00010746,1.423e-05,0.0,0 STARLINK-4462,1 53781U 22111J   24150.85132539  .00001423  00000-0  10746-3 0  9990,2 53781  53.2172 306.8708 0000956  87.4273 272.6829 15.08844972 94938,6917.865,95.437,540.392,539.069,0.0
53781.0,STARLINK-4462,PAYLOAD,2024-05-30 13:55:08,15.08849552,9.05e-05,53.2172,303.598,62.9933,297.1151,0.00021901,3.2e-05,0.0,0 STARLINK-4462,1 53781U 22111J   24151.57996384  .00003200  00000-0  21901-3 0  9996,2 53781  53.2172 303.5980 0000905  62.9933 297.1151 15.08849552 95850,6917.851,95.437,540.342,539.09,0.0
53781.0,STARLINK-4462,PAYLOAD,2024-05-30 17:05:54,15.08858166,0.0001032,53.2174,303.0029,73.9335,286.1771,0.00045841,7.019e-05,0.0,0 STARLINK-4462,1 53781U 22111J   24151.71244166  .00007019  00000-0  45841-3 0  9997,2 53781  53.2174 303.0029 0001032  73.9335 286.1771 15.08858166 95061,6917.825,95.436,540.404,538.976,0.0
53781.0,STARLINK-4462,PAYLOAD,2024-05-30 17:05:55,15.08854766,9.96e-05,53.2171,303.003,74.1726,285.9376,0.00039869,6.066e-05,0.0,0 STARLINK-4462,1 53781U 22111J   24151.71244222  .00006066  00000-0  39869-3 0  9994,2 53781  53.2171 303.0030 0000996  74.1726 285.9376 15.08854766 95874,6917.835,95.437,540.389,539.011,0.0
53781.0,STARLINK-4462,PAYLOAD,2024-05-31 10:35:09,15.08846842,0.00013,53.2172,299.7333,91.2096,268.9045,0.00019914,2.883e-05,0.0,0 STARLINK-4462,1 53781U 22111J   24152.44108369  .00002883  00000-0  19914-3 0  9998,2 53781  53.2172 299.7333 0001300  91.2096 268.9045 15.08846842 95175,6917.859,95.437,540.624,538.825,0.0
53781.0,STARLINK-4462,PAYLOAD,2024-05-31 13:45:55,15.08850336,0.0001297,53.2166,299.1368,122.8709,237.2408,0.00026254,3.894e-05,0.0,0 STARLINK-4462,1 53781U 22111J   24152.57356130  .00003894  00000-0  26254-3 0  9991,2 53781  53.2166 299.1368 0001297 122.8709 237.2408 15.08850336 96005,6917.849,95.437,540.611,538.817,0.0
53781.0,STARLINK-4462,PAYLOAD,2024-05-31 16:56:42,15.08847793,0.0001154,53.2186,298.5453,91.5134,268.599,0.00023136,3.397e-05,0.0,0 STARLINK-4462,1 53781U 22111J   24152.70604353  .00003397  00000-0  23136-3 0  9993,2 53781  53.2186 298.5453 0001154  91.5134 268.5990 15.08847793 96029,6917.857,95.437,540.52,538.923,0.0
53781.0,STARLINK-4462,PAYLOAD,2024-06-01 05:39:47,15.08839699,0.0001284,53.2158,296.1661,91.2706,268.8433,4.44e-05,4.19e-06,0.0,0 STARLINK-4462,1 53781U 22111J   24153.23596603  .00000419  00000-0  44400-4 0  9990,2 53781  53.2158 296.1661 0001284  91.2706 268.8433 15.08839699 95298,6917.881,95.438,540.635,538.858,0.0
53781.0,STARLINK-4462,PAYLOAD,2024-06-01 13:36:43,15.088351,0.0001178,53.2176,294.6807,101.2066,258.9059,-8.4798e-05,-1.637e-05,0.0,0 STARLINK-4462,1 53781U 22111J   24153.56716767 -.00001637  00000-0 -84798-4 0  9990,2 53781  53.2176 294.6807 0001178 101.2066 258.9059 15.08835100 96159,6917.895,95.438,540.575,538.945,0.0
53781.0,STARLINK-4462,PAYLOAD,2024-06-02 02:19:48,15.08840932,0.0001108,53.2178,292.2968,79.0368,281.0749,-3.607e-05,-8.62e-06,0.0,0 STARLINK-4462,1 53781U 22111J   24154.09708688 -.00000862  00000-0 -36070-4 0  9991,2 53781  53.2178 292.2968 0001108  79.0368 281.0749 15.08840932 96234,6917.878,95.437,540.509,538.976,0.0
53781.0,STARLINK-4462,PAYLOAD,2024-06-02 18:13:40,15.08837057,0.0001174,53.2176,289.3245,79.5538,280.5586,5.5271e-05,5.92e-06,0.0,0 STARLINK-4462,1 53781U 22111J   24154.75949253  .00000592  00000-0  55271-4 0  9991,2 53781  53.2176 289.3245 0001174  79.5538 280.5586 15.08837057 95522,6917.889,95.438,540.567,538.942,0.0
